{
  "type": "FeatureCollection",
  "features": [
    {
      "type": "Feature",
      "properties": {
        "norad_id": 19071,
        "name": "OSCAR 32",
        "group": "nnss",
        "lat": 55.62756373594068,
        "lon": 15.80629266827061,
        "alt_km": 1244.490832668659,
        "timestamp": "2025-12-04T19:33:59.872756+00:00",
        "meta_object_name": "OSCAR 32",
        "meta_object_id": "1988-033B",
        "meta_epoch": "2025-12-04T03:16:50.049696",
        "meta_mean_motion": 13.27952281,
        "meta_eccentricity": 0.01876287,
        "meta_inclination": 90.3227,
        "meta_ra_of_asc_node": 16.2571,
        "meta_arg_of_pericenter": 190.7186,
        "meta_mean_anomaly": 224.3743,
        "meta_ephemeris_type": 0,
        "meta_classification_type": "U",
        "meta_norad_cat_id": 19071,
        "meta_element_set_no": 999,
        "meta_rev_at_epoch": 82151,
        "meta_bstar": 0.00022431763,
        "meta_mean_motion_dot": 1.2e-06,
        "meta_mean_motion_ddot": 0,
        "tle_line1": "1 19071U 88033B   25338.13669039  .00000120  00000+0  22432-3 0  9996",
        "tle_line2": "2 19071  90.3227  16.2571 0187628 190.7186 224.3743 13.27952281821511"
      },
      "geometry": {
        "type": "Point",
        "coordinates": [
          15.80629266827061,
          55.62756373594068
        ]
      }
    },
    {
      "type": "Feature",
      "properties": {
        "norad_id": 19223,
        "name": "NOVA 2",
        "group": "nnss",
        "lat": 37.36073982331973,
        "lon": 78.29185938130013,
        "alt_km": 1147.2251470248484,
        "timestamp": "2025-12-04T19:33:59.872766+00:00",
        "meta_object_name": "NOVA 2",
        "meta_object_id": "1988-052A",
        "meta_epoch": "2025-12-04T06:56:31.263936",
        "meta_mean_motion": 13.22934462,
        "meta_eccentricity": 0.00312607,
        "meta_inclination": 89.9873,
        "meta_ra_of_asc_node": 78.2828,
        "meta_arg_of_pericenter": 39.6387,
        "meta_mean_anomaly": 14.0315,
        "meta_ephemeris_type": 0,
        "meta_classification_type": "U",
        "meta_norad_cat_id": 19223,
        "meta_element_set_no": 999,
        "meta_rev_at_epoch": 80836,
        "meta_bstar": 0.00018297762,
        "meta_mean_motion_dot": 8.6e-07,
        "meta_mean_motion_ddot": 0,
        "tle_line1": "1 19223U 88052A   25338.28925074  .00000086  00000+0  18298-3 0  9992",
        "tle_line2": "2 19223  89.9873  78.2828 0031260  39.6387  14.0315 13.22934462808361"
      },
      "geometry": {
        "type": "Point",
        "coordinates": [
          78.29185938130013,
          37.36073982331973
        ]
      }
    },
    {
      "type": "Feature",
      "properties": {
        "norad_id": 19419,
        "name": "OSCAR 25",
        "group": "nnss",
        "lat": -87.15273773640187,
        "lon": 20.930153266295484,
        "alt_km": 1036.7121790520378,
        "timestamp": "2025-12-04T19:33:59.872776+00:00",
        "meta_object_name": "OSCAR 25",
        "meta_object_id": "1988-074A",
        "meta_epoch": "2025-12-04T02:15:01.619136",
        "meta_mean_motion": 13.4262086,
        "meta_eccentricity": 0.00942214,
        "meta_inclination": 90.0354,
        "meta_ra_of_asc_node": 20.2154,
        "meta_arg_of_pericenter": 270.9634,
        "meta_mean_anomaly": 116.5152,
        "meta_ephemeris_type": 0,
        "meta_classification_type": "U",
        "meta_norad_cat_id": 19419,
        "meta_element_set_no": 999,
        "meta_rev_at_epoch": 82524,
        "meta_bstar": 0.00028670284,
        "meta_mean_motion_dot": 1.75e-06,
        "meta_mean_motion_ddot": 0,
        "tle_line1": "1 19419U 88074A   25338.09376874  .00000175  00000+0  28670-3 0  9994",
        "tle_line2": "2 19419  90.0354  20.2154 0094221 270.9634 116.5152 13.42620860825244"
      },
      "geometry": {
        "type": "Point",
        "coordinates": [
          20.930153266295484,
          -87.15273773640187
        ]
      }
    },
    {
      "type": "Feature",
      "properties": {
        "norad_id": 19420,
        "name": "OSCAR 31",
        "group": "nnss",
        "lat": 23.268401338135174,
        "lon": -159.41746723936677,
        "alt_km": 1118.113698312255,
        "timestamp": "2025-12-04T19:33:59.872785+00:00",
        "meta_object_name": "OSCAR 31",
        "meta_object_id": "1988-074B",
        "meta_epoch": "2025-12-04T04:48:49.436352",
        "meta_mean_motion": 13.42582601,
        "meta_eccentricity": 0.009247,
        "meta_inclination": 90.0371,
        "meta_ra_of_asc_node": 20.5643,
        "meta_arg_of_pericenter": 264.7621,
        "meta_mean_anomaly": 163.5934,
        "meta_ephemeris_type": 0,
        "meta_classification_type": "U",
        "meta_norad_cat_id": 19420,
        "meta_element_set_no": 999,
        "meta_rev_at_epoch": 82536,
        "meta_bstar": 0.00026349955,
        "meta_mean_motion_dot": 1.61e-06,
        "meta_mean_motion_ddot": 0,
        "tle_line1": "1 19420U 88074B   25338.20057218  .00000161  00000+0  26350-3 0  9995",
        "tle_line2": "2 19420  90.0371  20.5643 0092470 264.7621 163.5934 13.42582601825365"
      },
      "geometry": {
        "type": "Point",
        "coordinates": [
          -159.41746723936677,
          23.268401338135174
        ]
      }
    }
  ]
}